ATLAS CENTAUR R/B       
1 06155U 72065B   25344.42958690  .00002222  00000+0  30749-3 0  9991
2 06155  35.0008 108.7292 0034182 338.2759  21.6491 14.77398677828054
SL-8 R/B                
1 08459U 75112B   25344.25676853  .00000432  00000+0  15092-3 0  9990
2 08459  74.0594 183.4254 0016563 295.0297  64.9137 14.38142645619014
SL-3 R/B                
1 10114U 77057B   25344.48613088  .00018023  00000+0  41221-3 0  9995
2 10114  97.5688 147.7264 0006435 242.2636 117.7958 15.42860968654569
SEASAT 1                
1 10967U 78064A   25344.46862527  .00000767  00000+0  25312-3 0  9991
2 10967 108.0113 298.2692 0001699 249.5791 110.5172 14.46058004493611
SL-14 R/B               
1 11267U 79011B   25344.50744991  .00000879  00000+0  84612-4 0  9990
2 11267  82.5236 181.1615 0016117   0.9435 359.1812 14.91765424515480
SL-8 R/B                
1 11574U 79089B   25344.20050566  .00000523  00000+0  16639-3 0  9990
2 11574  74.0693 256.6785 0014437  92.1385 268.1424 14.42281230423200
SL-14 R/B               
1 11672U 80005B   25344.39484433  .00000913  00000+0  90070-4 0  9998
2 11672  82.5151  31.9233 0017332 100.5616 259.7556 14.90787648463182
SL-8 R/B                
1 12139U 81003B   25344.48003090  .00020045  00000+0  53189-3 0  9999
2 12139  82.9293  12.2830 0280005 127.9913 234.6965 15.06929368301226
SL-3 R/B                
1 12465U 81046B   25344.41961455  .00015186  00000+0  38320-3 0  9999
2 12465  81.2330  36.7133 0019025 332.7230  27.3010 15.39530189424688
SL-3 R/B                
1 12904U 81103B   25344.42213012  .00009533  00000+0  43833-3 0  9995
2 12904  81.1591 318.0678 0011426 221.4365 138.6000 15.20184955959666
SL-3 R/B                
1 13068U 82013B   25344.47255648  .00007390  00000+0  32907-3 0  9993
2 13068  81.1747 265.2629 0024063 117.9327 242.4345 15.21049440390786
SL-3 R/B                
1 13154U 82039B   25344.45183311  .00004823  00000+0  29650-3 0  9991
2 13154  81.1727 318.7291 0029799 260.1179  99.6681 15.09503676368171
