CCSDS_OMM_VERS = 2.0
CREATION_DATE  = 
ORIGINATOR     = 

OBJECT_NAME    = ATLAS CENTAUR R/B
OBJECT_ID      = 1972-065B
CENTER_NAME    = EARTH
REF_FRAME      = TEME
TIME_SYSTEM    = UTC
MEAN_ELEMENT_THEORY = SGP/SGP4

EPOCH          = 2025-12-10T10:18:36.308160
MEAN_MOTION    = 14.77398677
ECCENTRICITY   = .0034182
INCLINATION    = 35.0008
RA_OF_ASC_NODE = 108.7292
ARG_OF_PERICENTER = 338.2759
MEAN_ANOMALY   = 21.6491

EPHEMERIS_TYPE = 0
CLASSIFICATION_TYPE = U
NORAD_CAT_ID   = 6155
ELEMENT_SET_NO = 999
REV_AT_EPOCH   = 82805
BSTAR          = .30749E-3
MEAN_MOTION_DOT = .2222E-4
MEAN_MOTION_DDOT = 0

CCSDS_OMM_VERS = 2.0
CREATION_DATE  = 
ORIGINATOR     = 

OBJECT_NAME    = SL-8 R/B
OBJECT_ID      = 1975-112B
CENTER_NAME    = EARTH
REF_FRAME      = TEME
TIME_SYSTEM    = UTC
MEAN_ELEMENT_THEORY = SGP/SGP4

EPOCH          = 2025-12-10T06:09:44.800992
MEAN_MOTION    = 14.38142645
ECCENTRICITY   = .0016563
INCLINATION    = 74.0594
RA_OF_ASC_NODE = 183.4254
ARG_OF_PERICENTER = 295.0297
MEAN_ANOMALY   = 64.9137

EPHEMERIS_TYPE = 0
CLASSIFICATION_TYPE = U
NORAD_CAT_ID   = 8459
ELEMENT_SET_NO = 999
REV_AT_EPOCH   = 61901
BSTAR          = .15092E-3
MEAN_MOTION_DOT = .432E-5
MEAN_MOTION_DDOT = 0

CCSDS_OMM_VERS = 2.0
CREATION_DATE  = 
ORIGINATOR     = 

OBJECT_NAME    = SL-3 R/B
OBJECT_ID      = 1977-057B
CENTER_NAME    = EARTH
REF_FRAME      = TEME
TIME_SYSTEM    = UTC
MEAN_ELEMENT_THEORY = SGP/SGP4

EPOCH          = 2025-12-10T11:40:01.708032
MEAN_MOTION    = 15.42860968
ECCENTRICITY   = .0006435
INCLINATION    = 97.5688
RA_OF_ASC_NODE = 147.7264
ARG_OF_PERICENTER = 242.2636
MEAN_ANOMALY   = 117.7958

EPHEMERIS_TYPE = 0
CLASSIFICATION_TYPE = U
NORAD_CAT_ID   = 10114
ELEMENT_SET_NO = 999
REV_AT_EPOCH   = 65456
BSTAR          = .41221E-3
MEAN_MOTION_DOT = .18023E-3
MEAN_MOTION_DDOT = 0

CCSDS_OMM_VERS = 2.0
CREATION_DATE  = 
ORIGINATOR     = 

OBJECT_NAME    = SEASAT 1
OBJECT_ID      = 1978-064A
CENTER_NAME    = EARTH
REF_FRAME      = TEME
TIME_SYSTEM    = UTC
MEAN_ELEMENT_THEORY = SGP/SGP4

EPOCH          = 2025-12-10T11:14:49.223328
MEAN_MOTION    = 14.46058004
ECCENTRICITY   = .0001699
INCLINATION    = 108.0113
RA_OF_ASC_NODE = 298.2692
ARG_OF_PERICENTER = 249.5791
MEAN_ANOMALY   = 110.5172

EPHEMERIS_TYPE = 0
CLASSIFICATION_TYPE = U
NORAD_CAT_ID   = 10967
ELEMENT_SET_NO = 999
REV_AT_EPOCH   = 49361
BSTAR          = .25312E-3
MEAN_MOTION_DOT = .767E-5
MEAN_MOTION_DDOT = 0

CCSDS_OMM_VERS = 2.0
CREATION_DATE  = 
ORIGINATOR     = 

OBJECT_NAME    = SL-14 R/B
OBJECT_ID      = 1979-011B
CENTER_NAME    = EARTH
REF_FRAME      = TEME
TIME_SYSTEM    = UTC
MEAN_ELEMENT_THEORY = SGP/SGP4

EPOCH          = 2025-12-10T12:10:43.672224
MEAN_MOTION    = 14.91765424
ECCENTRICITY   = .0016117
INCLINATION    = 82.5236
RA_OF_ASC_NODE = 181.1615
ARG_OF_PERICENTER = 0.9435
MEAN_ANOMALY   = 359.1812

EPHEMERIS_TYPE = 0
CLASSIFICATION_TYPE = U
NORAD_CAT_ID   = 11267
ELEMENT_SET_NO = 999
REV_AT_EPOCH   = 51548
BSTAR          = .84612E-4
MEAN_MOTION_DOT = .879E-5
MEAN_MOTION_DDOT = 0

CCSDS_OMM_VERS = 2.0
CREATION_DATE  = 
ORIGINATOR     = 

OBJECT_NAME    = SL-8 R/B
OBJECT_ID      = 1979-089B
CENTER_NAME    = EARTH
REF_FRAME      = TEME
TIME_SYSTEM    = UTC
MEAN_ELEMENT_THEORY = SGP/SGP4

EPOCH          = 2025-12-10T04:48:43.689024
MEAN_MOTION    = 14.42281230
ECCENTRICITY   = .0014437
INCLINATION    = 74.0693
RA_OF_ASC_NODE = 256.6785
ARG_OF_PERICENTER = 92.1385
MEAN_ANOMALY   = 268.1424

EPHEMERIS_TYPE = 0
CLASSIFICATION_TYPE = U
NORAD_CAT_ID   = 11574
ELEMENT_SET_NO = 999
REV_AT_EPOCH   = 42320
BSTAR          = .16639E-3
MEAN_MOTION_DOT = .523E-5
MEAN_MOTION_DDOT = 0

CCSDS_OMM_VERS = 2.0
CREATION_DATE  = 
ORIGINATOR     = 

OBJECT_NAME    = SL-14 R/B
OBJECT_ID      = 1980-005B
CENTER_NAME    = EARTH
REF_FRAME      = TEME
TIME_SYSTEM    = UTC
MEAN_ELEMENT_THEORY = SGP/SGP4

EPOCH          = 2025-12-10T09:28:34.550112
MEAN_MOTION    = 14.90787648
ECCENTRICITY   = .0017332
INCLINATION    = 82.5151
RA_OF_ASC_NODE = 31.9233
ARG_OF_PERICENTER = 100.5616
MEAN_ANOMALY   = 259.7556

EPHEMERIS_TYPE = 0
CLASSIFICATION_TYPE = U
NORAD_CAT_ID   = 11672
ELEMENT_SET_NO = 999
REV_AT_EPOCH   = 46318
BSTAR          = .9007E-4
MEAN_MOTION_DOT = .913E-5
MEAN_MOTION_DDOT = 0

CCSDS_OMM_VERS = 2.0
CREATION_DATE  = 
ORIGINATOR     = 

OBJECT_NAME    = SL-8 R/B
OBJECT_ID      = 1981-003B
CENTER_NAME    = EARTH
REF_FRAME      = TEME
TIME_SYSTEM    = UTC
MEAN_ELEMENT_THEORY = SGP/SGP4

EPOCH          = 2025-12-10T11:31:14.669760
MEAN_MOTION    = 15.06929368
ECCENTRICITY   = .0280005
INCLINATION    = 82.9293
RA_OF_ASC_NODE = 12.2830
ARG_OF_PERICENTER = 127.9913
MEAN_ANOMALY   = 234.6965

EPHEMERIS_TYPE = 0
CLASSIFICATION_TYPE = U
NORAD_CAT_ID   = 12139
ELEMENT_SET_NO = 999
REV_AT_EPOCH   = 30122
BSTAR          = .53189E-3
MEAN_MOTION_DOT = .20045E-3
MEAN_MOTION_DDOT = 0

CCSDS_OMM_VERS = 2.0
CREATION_DATE  = 
ORIGINATOR     = 

OBJECT_NAME    = SL-3 R/B
OBJECT_ID      = 1981-046B
CENTER_NAME    = EARTH
REF_FRAME      = TEME
TIME_SYSTEM    = UTC
MEAN_ELEMENT_THEORY = SGP/SGP4

EPOCH          = 2025-12-10T10:04:14.697120
MEAN_MOTION    = 15.39530189
ECCENTRICITY   = .0019025
INCLINATION    = 81.2330
RA_OF_ASC_NODE = 36.7133
ARG_OF_PERICENTER = 332.7230
MEAN_ANOMALY   = 27.3010

EPHEMERIS_TYPE = 0
CLASSIFICATION_TYPE = U
NORAD_CAT_ID   = 12465
ELEMENT_SET_NO = 999
REV_AT_EPOCH   = 42468
BSTAR          = .3832E-3
MEAN_MOTION_DOT = .15186E-3
MEAN_MOTION_DDOT = 0

CCSDS_OMM_VERS = 2.0
CREATION_DATE  = 
ORIGINATOR     = 

OBJECT_NAME    = SL-3 R/B
OBJECT_ID      = 1981-103B
CENTER_NAME    = EARTH
REF_FRAME      = TEME
TIME_SYSTEM    = UTC
MEAN_ELEMENT_THEORY = SGP/SGP4

EPOCH          = 2025-12-10T10:07:52.042368
MEAN_MOTION    = 15.20184955
ECCENTRICITY   = .0011426
INCLINATION    = 81.1591
RA_OF_ASC_NODE = 318.0678
ARG_OF_PERICENTER = 221.4365
MEAN_ANOMALY   = 138.6000

EPHEMERIS_TYPE = 0
CLASSIFICATION_TYPE = U
NORAD_CAT_ID   = 12904
ELEMENT_SET_NO = 999
REV_AT_EPOCH   = 95966
BSTAR          = .43833E-3
MEAN_MOTION_DOT = .9533E-4
MEAN_MOTION_DDOT = 0

CCSDS_OMM_VERS = 2.0
CREATION_DATE  = 
ORIGINATOR     = 

OBJECT_NAME    = SL-3 R/B
OBJECT_ID      = 1982-013B
CENTER_NAME    = EARTH
REF_FRAME      = TEME
TIME_SYSTEM    = UTC
MEAN_ELEMENT_THEORY = SGP/SGP4

EPOCH          = 2025-12-10T11:20:28.879872
MEAN_MOTION    = 15.21049440
ECCENTRICITY   = .0024063
INCLINATION    = 81.1747
RA_OF_ASC_NODE = 265.2629
ARG_OF_PERICENTER = 117.9327
MEAN_ANOMALY   = 242.4345

EPHEMERIS_TYPE = 0
CLASSIFICATION_TYPE = U
NORAD_CAT_ID   = 13068
ELEMENT_SET_NO = 999
REV_AT_EPOCH   = 39078
BSTAR          = .32907E-3
MEAN_MOTION_DOT = .739E-4
MEAN_MOTION_DDOT = 0

CCSDS_OMM_VERS = 2.0
CREATION_DATE  = 
ORIGINATOR     = 

OBJECT_NAME    = SL-3 R/B
OBJECT_ID      = 1982-039B
CENTER_NAME    = EARTH
REF_FRAME      = TEME
TIME_SYSTEM    = UTC
MEAN_ELEMENT_THEORY = SGP/SGP4

EPOCH          = 2025-12-10T10:50:38.380704
MEAN_MOTION    = 15.09503676
ECCENTRICITY   = .0029799
INCLINATION    = 81.1727
RA_OF_ASC_NODE = 318.7291
ARG_OF_PERICENTER = 260.1179
MEAN_ANOMALY   = 99.6681

EPHEMERIS_TYPE = 0
CLASSIFICATION_TYPE = U
NORAD_CAT_ID   = 13154
ELEMENT_SET_NO = 999
REV_AT_EPOCH   = 36817
BSTAR          = .2965E-3
MEAN_MOTION_DOT = .4823E-4
MEAN_MOTION_DDOT = 0

